# From MPEC 2015-M77
107P/Wilson-Harrington,e,2.7983,266.8148,95.3728,2.625805,0.2316383,0.63125474,182.1361,07/18.0/2020,2000,g  9.0,4.0
# From MPC 89313
108P/Ciffreo,e,11.4529,50.4721,354.2438,3.743664,0.1360689,0.55705390,303.0201,07/18.0/2020,2000,g  8.0,12.0
# From  105, 420
109P/Swift-Tuttle,e,113.9425,139.0745,152.8781,26.11190,0.0073866,0.96312693,74.5513,07/18.0/2020,2000,g  4.0,6.0
# From MPC 92276
110P/Hartley,e,11.7073,287.5333,167.4397,3.600787,0.1442474,0.31785129,294.0276,07/18.0/2020,2000,g  1.0,12.0
# From MPC 75718
111P/Helin-Roman-Crockett,e,4.2275,89.7639,1.1361,4.144790,0.1168020,0.10552576,321.0295,07/18.0/2020,2000,g  5.0,8.0
# From MPC118097
112P/Urata-Niijima,e,24.1906,31.8464,21.4977,3.526164,0.1488505,0.58976609,23.9707,07/18.0/2020,2000,g 14.0,6.0
# From MPEC 2015-E14
113P/Spitaler,e,5.2944,306.7536,115.4854,3.700942,0.1384317,0.42711987,265.9842,07/18.0/2020,2000,g 13.5,4.0
# From MPEC 2019-TG9
114P/Wiseman-Skiff,e,18.2723,271.0592,172.8006,3.546804,0.1475531,0.55473126,27.4353,07/18.0/2020,2000,g 11.5,6.0
# From MPC105241
115P/Maury,e,11.6743,176.0184,121.0149,4.276819,0.1114353,0.51905480,358.6905,07/18.0/2020,2000,g 10.5,6.0
# From MPC106348
116P/Wild,e,3.6040,20.9959,173.3878,3.488509,0.1512670,0.37087204,249.7229,07/18.0/2020,2000,g  2.5,10.0
# From MPEC 2015-S97
117P/Helin-Roman-Alu,e,8.7013,58.8551,222.7317,4.086811,0.1192964,0.25577931,274.2537,07/18.0/2020,2000,g  9.0,4.0
# From MPC 95735
118P/Shoemaker-Levy,e,9.5368,143.3225,311.5701,3.397882,0.1573590,0.45692572,226.6022,07/18.0/2020,2000,g 12.0,4.0
# From MPC 84628
119P/Parker-Hartley,e,7.5119,104.9320,321.2784,3.828125,0.1315906,0.39986497,261.9203,07/18.0/2020,2000,g  3.5,8.0
# From MPC 80901
120P/Mueller,e,8.4867,358.6794,36.4572,3.965212,0.1248258,0.37495055,323.4536,07/18.0/2020,2000,g 12.0,4.0
# From MPC100283
121P/Shoemaker-Holt,e,20.1637,94.1389,11.2407,4.586760,0.1003333,0.18495546,252.2131,07/18.0/2020,2000,g  6.5,8.0
# From MPC 75718
122P/de Vico,e,84.6668,79.5162,13.0203,17.63259,0.0133116,0.96227916,120.7502,07/18.0/2020,2000,g  7.5,5.2
# From MPC114608
123P/West-Hartley,e,15.3374,46.4506,103.2857,3.865042,0.1297098,0.44871680,68.5429,07/18.0/2020,2000,g  4.0,10.0
# From MPEC 2020-N31
124P/Mrkos,e,31.5131,0.3711,183.8588,3.317761,0.1630934,0.50341920,13.3907,07/18.0/2020,2000,g 13.5,2.8
# From MPEC 2015-M77
125P/Spacewatch,e,9.9871,153.1610,87.2205,3.125048,0.1784100,0.51309822,123.1359,07/18.0/2020,2000,g  9.0,4.0
# From MPC 66205
126P/IRAS,e,45.8516,357.8478,356.4988,5.642157,0.0735422,0.69601964,280.3885,07/18.0/2020,2000,g  9.0,4.0
# From MPC 84321
127P/Holt-Olmstead,e,14.2984,13.6478,6.5375,3.449611,0.1538328,0.35982128,243.9531,07/18.0/2020,2000,g 11.0,6.0
# From MPC 89014
128P/Shoemaker-Holt,e,4.3659,214.2928,210.3784,4.493999,0.1034557,0.32038279,133.0042,07/18.0/2020,2000,g  8.5,4.0
# From MPEC 2019-TG9
129P/Shoemaker-Levy,e,3.4430,184.8910,308.1627,4.281143,0.1112665,0.08389191,263.1101,07/18.0/2020,2000,g 11.0,4.0
# From MPC 78188
130P/McNaught-Hughes,e,6.0639,70.2462,245.9595,3.383806,0.1583419,0.46131267,143.7398,07/18.0/2020,2000,g 10.0,6.0
# From MPC102101
131P/Mueller,e,7.3534,214.1753,179.0393,3.681432,0.1395336,0.34360726,75.4672,07/18.0/2020,2000,g 11.0,4.0
# From MPEC 2020-HN5
132P/Helin-Roman-Alu,e,5.3782,174.1234,216.3875,3.883636,0.1287794,0.56544485,297.7810,07/18.0/2020,2000,g 11.0,6.0
# From MPC 94676
133P/Elst-Pizarro,e,1.3891,160.1246,131.7053,3.163630,0.1751562,0.15719709,116.5632,07/18.0/2020,2000,g 15.4,2.0
# From MPC 89012
134P/Kowal-Vavrova,e,4.3440,202.0820,18.8718,6.257585,0.0629642,0.58678787,141.6781,07/18.0/2020,2000,g 11.5,4.0
# From MPEC 2015-E14
135P/Shoemaker-Levy,e,6.0614,213.0475,22.2505,3.804172,0.1328354,0.29553434,276.5765,07/18.0/2020,2000,g  9.0,4.0
# From MPC101100
136P/Mueller,e,9.4238,137.4448,224.8901,4.195344,0.1146972,0.29219012,173.0401,07/18.0/2020,2000,g 11.0,4.0
# From MPEC 2020-HN5
137P/Shoemaker-Levy,e,4.8534,233.0650,141.0063,4.520361,0.1025520,0.57322208,59.7403,07/18.0/2020,2000,g 11.0,4.0
# From MPEC 2016-U66
138P/Shoemaker-Levy,e,10.0910,309.3317,95.5765,3.623200,0.1429110,0.53023279,63.2035,07/18.0/2020,2000,g 15.0,6.0
# From MPEC 2020-HN5
139P/Vaisala-Oterma,e,2.3334,242.1968,165.7845,4.524697,0.1024047,0.24633675,97.4419,07/18.0/2020,2000,g  9.5,4.0
# From MPEC 2015-E14
140P/Bowell-Skiff,e,3.8275,343.3183,172.9235,6.436093,0.0603630,0.69114853,109.0955,07/18.0/2020,2000,g 11.5,6.0
# From MPC105242
141P/Machholz,e,13.9467,241.8558,153.5359,3.056584,0.1844376,0.73568709,332.2602,07/18.0/2020,2000,g 12.0,12.0
# From MPC 95735
141P-H/Machholz,e,12.8431,246.0900,149.4500,3.008012,0.1889230,0.74682218,359.9270,08/24.0/2015,2000,g 18.5,4.0
# From MPC 71683
142P/Ge-Wang,e,12.2389,176.0122,173.9793,5.007841,0.0879485,0.49848302,333.7147,07/18.0/2020,2000,g  9.0,4.0
# From MPEC 2020-HN5
143P/Kowal-Mrkos,e,4.6970,245.2700,320.4987,4.286497,0.1110581,0.41057022,89.2936,07/18.0/2020,2000,g 13.5,2.0
# From MPC104795
144P/Kushida,e,3.9846,243.9023,215.8727,3.810107,0.1325251,0.63893864,189.4695,07/18.0/2020,2000,g  8.5,8.0
# From MPC108598
145P/Shoemaker-Levy,e,11.2663,26.7900,10.2634,4.140131,0.1169992,0.54092530,122.9856,07/18.0/2020,2000,g 13.5,4.0
# From MPC100284
146P/Shoemaker-LINEAR,e,23.0829,53.4236,316.9111,4.033450,0.1216715,0.64655026,179.9167,07/18.0/2020,2000,g 15.0,4.0
# From MPC 75720
147P/Kushida-Muramatsu,e,2.3667,93.3307,351.3449,3.942608,0.1259008,0.24398949,205.2075,07/18.0/2020,2000,g 14.0,4.0
# From MPEC 2014-R70
148P/Anderson-LINEAR,e,3.6771,89.6067,6.8475,3.647983,0.1414572,0.54774478,261.5906,07/18.0/2020,2000,g  9.0,4.0
# From MPC 75720
149P/Mueller,e,29.8113,145.1296,44.0940,4.327111,0.1094982,0.39101495,56.5100,07/18.0/2020,2000,g  8.0,8.0
# From MPC 75720
150P/LONEOS,e,18.5075,272.4037,245.5757,3.880160,0.1289525,0.54653490,187.6867,07/18.0/2020,2000,g 13.5,4.0
# From MPEC 2015-Q71
151P/Helin,e,4.7270,143.1498,216.0490,5.764693,0.0712098,0.57298331,124.1750,07/18.0/2020,2000,g 10.0,6.0
# From MPC 79346
152P/Helin-Lawrence,e,9.8798,91.8690,163.8215,4.480942,0.1039083,0.30912663,303.4616,07/18.0/2020,2000,g 11.5,4.0
# From MPC 46101
153P/Ikeya-Zhang,e,27.7135,93.0527,35.2091,50.87005,0.0027165,0.98964754,0.0000,03/10.2711/2002,2000,g  9.0,4.0
# From MPC 87068
154P/Brewington,e,17.6300,343.0170,47.8467,4.803801,0.0936109,0.67515560,226.3406,07/18.0/2020,2000,g  2.5,12.0
# From MPC118098
155P/Shoemaker,e,6.3959,97.1977,14.6544,6.585120,0.0583255,0.72639260,14.3487,07/18.0/2020,2000,g 10.0,4.8
# From MPEC 2020-N31
156P/Russell-LINEAR,e,17.2626,35.3726,0.4150,3.460406,0.1531135,0.61476182,341.1883,07/18.0/2020,2000,g 15.5,2.0
# From MPC104795
157P/Tritton,e,12.8579,287.9407,155.5846,3.518395,0.1493438,0.57294371,244.4629,07/18.0/2020,2000,g 10.0,4.0
# From MPEC 2016-K18
158P/Kowal-LINEAR,e,7.9414,135.7646,190.3761,4.874865,0.0915715,0.01729550,314.8781,07/18.0/2020,2000,g  9.0,4.0
# From MPEC 2020-L06
159P/LONEOS,e,23.4612,55.0048,4.6214,5.856428,0.0695432,0.38146593,54.8006,07/18.0/2020,2000,g 10.0,4.0
# From MPEC 2019-TG9
160P/LINEAR,e,15.6157,333.3652,12.6628,3.772372,0.1345186,0.52617879,30.7632,07/18.0/2020,2000,g 15.5,2.0
# From MPC 75721
161P/Hartley-IRAS,e,95.7461,1.4737,46.9203,7.727152,0.0458854,0.83453250,253.3126,07/18.0/2020,2000,g  8.5,6.0
# From MPEC 2020-N31
162P/Siding Spring,e,27.5541,30.9165,357.1205,3.091140,0.1813536,0.58294249,334.1013,07/18.0/2020,2000,g 12.0,4.0
# From MPEC 2020-HN5
163P/NEAT,e,12.7079,102.0919,349.6609,3.769472,0.1346739,0.45184283,46.8478,07/18.0/2020,2000,g 14.5,4.0
# From MPC106349
164P/Christensen,e,16.2535,88.3044,325.8537,3.658060,0.1408730,0.53969682,109.7025,07/18.0/2020,2000,g 11.0,4.0
# From MPC 75721
165P/LINEAR,e,15.8989,0.7666,126.2010,17.90099,0.0130133,0.61472856,95.8513,07/18.0/2020,2000,g 11.5,2.0
# From MPC 75722
166P/NEAT,e,15.3622,64.4966,321.4464,13.83039,0.0191625,0.38223366,127.3839,07/18.0/2020,2000,g  5.5,4.0
# From MPC 75722
167P/CINEOS,e,19.1216,295.6517,344.2141,16.19011,0.0151297,0.27296956,106.0894,07/18.0/2020,2000,g  9.5,2.0
# From MPC102101
168P/Hergenrother,e,21.6136,355.4612,14.9918,3.581960,0.1453862,0.62070307,50.5686,07/18.0/2020,2000,g 15.5,4.0
# From MPEC 2020-L06
169P/NEAT,e,11.2963,176.0917,218.0643,2.601397,0.2349060,0.76799221,190.4187,07/18.0/2020,2000,g 16.0,2.0
# From MPC 89012
170P/Christensen,e,10.1250,142.9219,225.6391,4.198188,0.1145806,0.30346685,244.5397,07/18.0/2020,2000,g 12.0,4.0
# From MPC102102
171P/Spahr,e,21.9336,101.6973,347.1141,3.556369,0.1469582,0.50165300,81.0384,07/18.0/2020,2000,g 13.5,4.0
# From MPEC 2019-VB6
172P/Yeung,e,11.2324,30.8969,209.3881,4.210891,0.1140626,0.20606540,139.4101,07/18.0/2020,2000,g 13.0,4.0
# From MPEC 2020-HN5
173P/Mueller,e,16.4972,100.4009,29.3341,5.701276,0.0724012,0.26053167,322.5012,07/18.0/2020,2000,g  7.5,4.0
# From MPC 92985
174P/Echeclus,e,4.3431,173.2566,162.9347,10.70520,0.0281392,0.45714069,53.8182,07/18.0/2020,2000,g  9.4,2.0
# From MPC114608
175P/Hergenrother,e,6.0779,123.5261,56.2741,3.430363,0.1551293,0.43245484,45.1452,07/18.0/2020,2000,g 14.0,4.0
# From MPC 89015
176P/LINEAR,e,0.2348,345.8848,35.1329,3.193110,0.1727361,0.19300193,211.6246,07/18.0/2020,2000,g 15.1,2.0
# From MPEC 2020-L06
177P/Barnard,e,31.3311,272.3465,60.1602,24.38424,0.0081854,0.95515107,41.5049,07/18.0/2020,2000,g 15.0,4.0
# From MPC105242
178P/Hug-Bell,e,11.0897,102.8742,297.7847,3.630454,0.1424829,0.48180791,0.1984,07/18.0/2020,2000,g 13.5,4.0
# From MPC 75723
179P/Jedicke,e,19.8990,115.5259,296.5354,5.942277,0.0680416,0.30619632,313.8163,07/18.0/2020,2000,g  2.5,8.0
# From MPC100284
180P/NEAT,e,16.8682,84.5579,94.8848,3.861389,0.1298939,0.35328076,218.4372,07/18.0/2020,2000,g 11.0,4.0
# From MPC 89012
181P/Shoemaker-Levy,e,17.4862,35.4118,336.2526,3.871096,0.1294056,0.70039407,290.1390,07/18.0/2020,2000,g 11.5,4.0
# From MPEC 2014-J10
182P/LONEOS,e,16.2332,72.7042,53.8467,2.956042,0.1939269,0.66180408,231.2651,07/18.0/2020,2000,g 18.0,4.0
# From MPC110085
